[
    {
        "Altitude(m)": 611965.2361717799,
        "Argument of Periapsis(deg)": 0.0,
        "Eccentricity": 0.0,
        "Inclination(deg)": 60.0,
        "Latitude(deg)": 59.140315600316235,
        "Longitude(deg)": 88.96978042148405,
        "Mean Anomaly(deg)": 81.8182,
        "RAAN(deg)": 114.99999999999999,
        "Satellite Name": "Test1 511",
        "Satellite Number": 511,
        "Semi-Major Axis(m)": 6980739.136638005,
        "Time(s)": 0
    },
    {
        "Altitude(m)": 611995.8616762663,
        "Argument of Periapsis(deg)": 0.00010418945913296404,
        "Eccentricity": 0.0,
        "Inclination(deg)": 60.0,
        "Latitude(deg)": 59.28341599609706,
        "Longitude(deg)": 90.1031475057557,
        "Mean Anomaly(deg)": 82.43830614546184,
        "RAAN(deg)": 114.99957995086024,
        "Satellite Name": "Test1 511",
        "Satellite Number": 511,
        "Semi-Major Axis(m)": 6980739.136638005,
        "Time(s)": 10
    }
]